QIANFAN-81              
1 63167U 25046J   25283.83115400  .00000085  00000+0  11304-3 0  9996
2 63167  88.9803 326.3828 0012723 306.8715  53.1269 13.50985207 38993
QIANFAN-82              
1 63168U 25046K   25283.86425293  .00000151  00000+0  21471-3 0  9994
2 63168  88.9803 326.4230 0011057 316.8134  43.2149 13.50967576 38982
QIANFAN-83              
1 63169U 25046L   25283.81082735  .00000170  00000+0  20554-3 0  9992
2 63169  88.9804 326.3283 0012067 303.3939  56.6063 13.61961678 39036
QIANFAN-84              
1 63170U 25046M   25283.81859712  .00000119  00000+0  16651-3 0  9997
2 63170  88.9804 326.5606 0013926 311.5259  48.4696 13.50985585 38907
QIANFAN-85              
1 63171U 25046N   25283.81489160  .00000168  00000+0  24111-3 0  9998
2 63171  88.9803 326.4330 0011378 315.5199  44.5037 13.50970297 38973
QIANFAN-86              
1 63172U 25046P   25283.82312935  .00000161  00000+0  23076-3 0  9997
2 63172  88.9805 326.2928 0009371 321.9069  38.1419 13.50967374 39059
QIANFAN-87              
1 63173U 25046Q   25282.68330257  .00000145  00000+0  20656-3 0  9991
2 63173  88.9804 326.5243 0010016 319.1660  40.8739 13.50979787 38837
QIANFAN-88              
1 63174U 25046R   25283.51451471  .00000149  00000+0  21299-3 0  9995
2 63174  88.9800 326.3915 0010557 325.4993  34.5472 13.50973338 38972
